NORAD_CAT_ID,OBJECT_NAME,OBJECT_TYPE,EPOCH,MEAN_MOTION,ECCENTRICITY,INCLINATION,RA_OF_ASC_NODE,ARG_OF_PERICENTER,MEAN_ANOMALY,BSTAR,MEAN_MOTION_DOT,MEAN_MOTION_DDOT,TLE_LINE0,TLE_LINE1,TLE_LINE2,SEMIMAJOR_AXIS,PERIOD,APOGEE,PERIGEE,DECAYED
55652.0,STARLINK-5487,PAYLOAD,2023-06-08 06:00:00,15.34438998,0.0003315,69.9991,200.8057,268.5051,105.2695,-0.031128,-0.00951927,0.0,0 STARLINK-5487,1 55652U 23021AA  23159.25001157 -.00951927  00000-0 -31128-1 0  9993,2 55652  69.9991 200.8057 0003315 268.5051 105.2695 15.34438998 17852,6840.724,93.845,464.857,460.322,0.0
55652.0,STARLINK-5487,PAYLOAD,2023-06-08 12:12:56,15.35595105,0.0002919,69.9964,200.1194,267.2152,92.8692,-0.008348,-0.00279458,0.0,0 STARLINK-5487,1 55652U 23021AA  23159.50898416 -.00279458  00000-0 -83480-2 0  9994,2 55652  69.9964 200.1194 0002919 267.2152  92.8692 15.35595105 18195,6837.29,93.775,461.151,457.16,0.0
55652.0,STARLINK-5487,PAYLOAD,2023-06-08 22:00:00,15.3307914,0.0003233,69.9989,199.0304,268.796,184.9412,-0.028665,-0.00847939,0.0,0 STARLINK-5487,1 55652U 23021AA  23159.91667824 -.00847939  00000-0 -28665-1 0  9994,2 55652  69.9989 199.0304 0003233 268.7960 184.9412 15.33079140 17954,6844.769,93.929,468.847,464.421,0.0
55652.0,STARLINK-5487,PAYLOAD,2023-06-09 06:00:00,15.32476797,0.0003202,69.9993,198.1439,269.0212,223.5084,-0.032861,-0.00944912,0.0,0 STARLINK-5487,1 55652U 23021AA  23160.25001157 -.00944912  00000-0 -32861-1 0  9996,2 55652  69.9993 198.1439 0003202 269.0212 223.5084 15.32476797 18008,6846.562,93.966,470.62,466.235,0.0
55652.0,STARLINK-5487,PAYLOAD,2023-06-09 13:16:21,15.33611933,0.0003112,69.9958,197.3426,279.9348,80.1478,-0.0086201,-0.00271229,0.0,0 STARLINK-5487,1 55652U 23021AA  23160.55302218 -.00271229  00000-0 -86201-2 0  9993,2 55652  69.9958 197.3426 0003112 279.9348  80.1478 15.33611933 18352,6843.184,93.896,467.178,462.919,0.0
55652.0,STARLINK-5487,PAYLOAD,2023-06-09 22:00:00,15.31124899,0.0003137,69.9991,196.3739,265.9193,301.8755,-0.03061,-0.00851266,0.0,0 STARLINK-5487,1 55652U 23021AA  23160.91667824 -.00851266  00000-0 -30610-1 0  9997,2 55652  69.9991 196.3739 0003137 265.9193 301.8755 15.31124899 18107,6850.592,94.048,474.606,470.308,0.0
55652.0,STARLINK-5487,PAYLOAD,2023-06-10 06:00:02,15.3051613,0.0003227,69.9994,195.4904,266.8989,337.4074,-0.034655,-0.00937801,0.0,0 STARLINK-5487,1 55652U 23021AA  23161.25002315 -.00937801  00000-0 -34655-1 0  9996,2 55652  69.9994 195.4904 0003227 266.8989 337.4074 15.30516130 18153,6852.408,94.086,476.485,472.062,0.0
55652.0,STARLINK-5487,PAYLOAD,2023-06-10 14:00:01,15.2986091,0.0003217,69.9991,194.6076,271.1535,8.7573,-0.034622,-0.00919648,0.0,0 STARLINK-5487,1 55652U 23021AA  23161.58334491 -.00919648  00000-0 -34622-1 0  9998,2 55652  69.9991 194.6076 0003217 271.1535   8.7573 15.29860910  1303,6854.365,94.126,478.435,474.025,0.0
55652.0,STARLINK-5487,PAYLOAD,2023-06-10 22:00:00,15.29166043,0.0003296,69.9993,193.7259,265.8707,48.9439,-0.032413,-0.00848504,0.0,0 STARLINK-5487,1 55652U 23021AA  23161.91667824 -.00848504  00000-0 -32413-1 0  9992,2 55652  69.9993 193.7259 0003296 265.8707  48.9439 15.29166043 18262,6856.441,94.169,480.566,476.046,0.0
55652.0,STARLINK-5487,PAYLOAD,2023-06-11 06:00:00,15.2855738,0.0003389,69.9995,192.8449,268.7261,80.1886,-0.036686,-0.00946558,0.0,0 STARLINK-5487,1 55652U 23021AA  23162.25001157 -.00946558  00000-0 -36686-1 0  9995,2 55652  69.9995 192.8449 0003389 268.7261  80.1886 15.28557380 18312,6858.261,94.206,482.45,477.802,0.0
55652.0,STARLINK-5487,PAYLOAD,2023-06-11 14:00:01,15.27909093,0.0003349,69.9991,191.9649,274.1152,108.1187,-0.037109,-0.00939188,0.0,0 STARLINK-5487,1 55652U 23021AA  23162.58334491 -.00939188  00000-0 -37109-1 0  9993,2 55652  69.9991 191.9649 0003349 274.1152 108.1187 15.27909093  1303,6860.201,94.246,484.363,479.768,0.0
55652.0,STARLINK-5487,PAYLOAD,2023-06-11 22:00:00,15.272085,0.0003319,69.9993,191.0858,268.6222,146.1701,-0.034326,-0.00846411,0.0,0 STARLINK-5487,1 55652U 23021AA  23162.91667824 -.00846411  00000-0 -34326-1 0  9993,2 55652  69.9993 191.0858 0003319 268.6222 146.1701 15.27208500  1300,6862.299,94.29,486.441,481.886,0.0
55652.0,STARLINK-5487,PAYLOAD,2023-06-12 06:00:00,15.26598806,0.0003343,69.9994,190.2076,271.043,175.5039,-0.038892,-0.00945304,0.0,0 STARLINK-5487,1 55652U 23021AA  23163.25001157 -.00945304  00000-0 -38892-1 0  9995,2 55652  69.9994 190.2076 0003343 271.0430 175.5039 15.26598806 18465,6864.126,94.327,488.285,483.696,0.0
55652.0,STARLINK-5487,PAYLOAD,2023-06-12 14:00:01,15.25954589,0.0003252,69.999,189.3299,275.4962,202.0852,-0.039633,-0.00944719,0.0,0 STARLINK-5487,1 55652U 23021AA  23163.58335648 -.00944719  00000-0 -39633-1 0  9999,2 55652  69.9990 189.3299 0003252 275.4962 202.0852 15.25954589  1301,6866.057,94.367,490.155,485.69,0.0
55652.0,STARLINK-5487,PAYLOAD,2023-06-13 00:00:00,15.25129893,0.0003302,69.9992,188.2346,265.3338,339.8068,-0.039449,-0.00919175,0.0,0 STARLINK-5487,1 55652U 23021AA  23164.00001157 -.00919175  00000-0 -39449-1 0  9995,2 55652  69.9992 188.2346 0003302 265.3338 339.8068 15.25129893  1305,6868.532,94.418,492.665,488.129,0.0
55652.0,STARLINK-5487,PAYLOAD,2023-06-13 06:00:02,15.24636046,0.0003269,69.9993,187.5778,270.4262,266.7771,-0.04086,-0.00936669,0.0,0 STARLINK-5487,1 55652U 23021AA  23164.25002315 -.00936669  00000-0 -40860-1 0  9995,2 55652  69.9993 187.5778 0003269 270.4262 266.7771 15.24636046 18615,6870.016,94.449,494.126,489.635,0.0
55652.0,STARLINK-5487,PAYLOAD,2023-06-13 14:00:01,15.23999338,0.0003258,69.9988,186.703,273.1197,292.6415,-0.042297,-0.00950229,0.0,0 STARLINK-5487,1 55652U 23021AA  23164.58334491 -.00950229  00000-0 -42297-1 0  9998,2 55652  69.9988 186.7030 0003258 273.1197 292.6415 15.23999338  1302,6871.929,94.488,496.033,491.555,0.0
55652.0,STARLINK-5487,PAYLOAD,2023-06-13 22:00:00,15.2330257,0.0003292,69.999,185.8289,266.2725,327.3501,-0.039081,-0.00855884,0.0,0 STARLINK-5487,1 55652U 23021AA  23164.91667824 -.00855884  00000-0 -39081-1 0  9992,2 55652  69.9990 185.8289 0003292 266.2725 327.3501 15.23302570  1307,6874.024,94.531,498.152,493.626,0.0
55652.0,STARLINK-5487,PAYLOAD,2023-06-14 14:00:01,15.22044372,0.0003431,69.9985,184.0835,272.2411,14.7222,-0.04504,-0.0095444,0.0,0 STARLINK-5487,1 55652U 23021AA  23165.58334491 -.00954440  00000-0 -45040-1 0  9997,2 55652  69.9985 184.0835 0003431 272.2411  14.7222 15.22044372 18827,6877.812,94.61,502.037,497.317,0.0
55652.0,STARLINK-5487,PAYLOAD,2023-06-14 22:00:00,15.2134945,0.0003464,69.9987,183.2122,266.2366,46.2403,-0.041716,-0.00861787,0.0,0 STARLINK-5487,1 55652U 23021AA  23165.91667824 -.00861787  00000-0 -41716-1 0  9990,2 55652  69.9987 183.2122 0003464 266.2366  46.2403 15.21349450  1307,6879.906,94.653,504.154,499.388,0.0
55652.0,STARLINK-5487,PAYLOAD,2023-06-15 06:00:00,15.20718749,0.000346,69.9988,182.3417,269.8276,67.3722,-0.045554,-0.00930265,0.0,0 STARLINK-5487,1 55652U 23021AA  23166.25001157 -.00930265  00000-0 -45554-1 0  9991,2 55652  69.9988 182.3417 0003460 269.8276  67.3722 15.20718749 18924,6881.808,94.692,506.054,501.292,0.0
55652.0,STARLINK-5487,PAYLOAD,2023-06-15 14:00:01,15.20088774,0.0003514,69.9983,181.4719,273.6462,87.4786,-0.047808,-0.00956381,0.0,0 STARLINK-5487,1 55652U 23021AA  23166.58334491 -.00956381  00000-0 -47808-1 0  9998,2 55652  69.9983 181.4719 0003514 273.6462  87.4786 15.20088774  1309,6883.71,94.731,507.994,503.156,0.0
55652.0,STARLINK-5487,PAYLOAD,2023-06-15 20:00:01,15.19541775,0.0003396,69.9986,180.8201,267.4428,21.1412,-0.043175,-0.00847138,0.0,0 STARLINK-5487,1 55652U 23021AA  23166.83334491 -.00847138  00000-0 -43175-1 0  9998,2 55652  69.9986 180.8201 0003396 267.4428  21.1412 15.19541775  1306,6885.361,94.765,509.565,504.888,0.0
55652.0,STARLINK-5487,PAYLOAD,2023-06-16 14:00:01,15.18131776,0.0003448,69.9981,178.868,274.5933,153.6532,-0.050594,-0.00956165,0.0,0 STARLINK-5487,1 55652U 23021AA  23167.58334491 -.00956165  00000-0 -50594-1 0  9995,2 55652  69.9981 178.8680 0003448 274.5933 153.6532 15.18131776 19125,6889.624,94.853,513.865,509.114,0.0
55652.0,STARLINK-5487,PAYLOAD,2023-06-16 22:00:00,15.17445067,0.0003398,69.9983,178.0019,268.1454,180.9185,-0.047602,-0.00887098,0.0,0 STARLINK-5487,1 55652U 23021AA  23167.91667824 -.00887098  00000-0 -47602-1 0  9995,2 55652  69.9983 178.0019 0003398 268.1454 180.9185 15.17445067  1304,6891.703,94.896,515.909,511.226,0.0
55652.0,STARLINK-5487,PAYLOAD,2023-06-17 06:00:02,15.16803986,0.0003378,69.9984,177.1366,270.994,198.1658,-0.050981,-0.00929419,0.0,0 STARLINK-5487,1 55652U 23021AA  23168.25002315 -.00929419  00000-0 -50981-1 0  9999,2 55652  69.9984 177.1366 0003378 270.9940 198.1658 15.16803986 19222,6893.644,94.936,517.838,513.181,0.0
55652.0,STARLINK-5487,PAYLOAD,2023-06-17 08:42:09,15.18265045,0.0003172,69.9964,176.849,283.4327,76.6488,-0.014024,-0.00277498,0.0,0 STARLINK-5487,1 55652U 23021AA  23168.36260586 -.00277498  00000-0 -14024-1 0  9998,2 55652  69.9964 176.8490 0003172 283.4327  76.6488 15.18265045 19540,6889.221,94.845,513.271,508.901,0.0
55652.0,STARLINK-5487,PAYLOAD,2023-06-17 19:46:52,15.17637282,0.000352,69.9967,175.6517,267.1585,92.9181,-0.012987,-0.00253232,0.0,0 STARLINK-5487,1 55652U 23021AA  23168.82422146 -.00253232  00000-0 -12987-1 0  9997,2 55652  69.9967 175.6517 0003520 267.1585  92.9181 15.17637282 19616,6891.121,94.884,515.411,510.56,0.0
55652.0,STARLINK-5487,PAYLOAD,2023-06-18 10:02:44,15.16247748,0.0005234,69.9974,174.1149,282.6301,77.4282,-0.013948,-0.00261164,0.0,0 STARLINK-5487,1 55652U 23021AA  23169.41857043 -.00261164  00000-0 -13948-1 0  9992,2 55652  69.9974 174.1149 0005234 282.6301  77.4282 15.16247748 19704,6895.33,94.971,520.804,513.586,0.0
55652.0,STARLINK-5487,PAYLOAD,2023-06-18 14:00:01,15.14221619,0.0003269,69.9981,173.6838,271.9852,269.4454,-0.057062,-0.00963707,0.0,0 STARLINK-5487,1 55652U 23021AA  23169.58335648 -.00963707  00000-0 -57062-1 0  9999,2 55652  69.9981 173.6838 0003269 271.9852 269.4454 15.14221619 19429,6901.48,95.098,525.601,521.089,0.0
